{
  "type": "FeatureCollection",
  "features": [
    {
      "type": "Feature",
      "properties": {
        "norad_id": 26766,
        "name": "INTELSAT 10 (IS-10)",
        "group": "intelsat",
        "lat": -1.1637053620748357,
        "lon": 53.37272725648183,
        "alt_km": 36146.71288328989,
        "timestamp": "2025-12-06T11:28:10.696632+00:00",
        "meta_object_name": "INTELSAT 10 (IS-10)",
        "meta_object_id": "2001-019A",
        "meta_epoch": "2025-12-05T12:47:33.691776",
        "meta_mean_motion": 0.99078635,
        "meta_eccentricity": 0.00078343,
        "meta_inclination": 8.6118,
        "meta_ra_of_asc_node": 61.2275,
        "meta_arg_of_pericenter": 219.6027,
        "meta_mean_anomaly": 155.367,
        "meta_ephemeris_type": 0,
        "meta_classification_type": "U",
        "meta_norad_cat_id": 26766,
        "meta_element_set_no": 999,
        "meta_rev_at_epoch": 4366,
        "meta_bstar": 0,
        "meta_mean_motion_dot": -2.14e-06,
        "meta_mean_motion_ddot": 0,
        "tle_line1": "1 26766U 01019A   25339.53302884 -.00000214  00000+0  00000+0 0  9999",
        "tle_line2": "2 26766   8.6118  61.2275 0007834 219.6027 155.3670  0.99078635 43668"
      },
      "geometry": {
        "type": "Point",
        "coordinates": [
          53.37272725648183,
          -1.1637053620748357
        ]
      }
    },
    {
      "type": "Feature",
      "properties": {
        "norad_id": 26900,
        "name": "INTELSAT 902 (IS-902)",
        "group": "intelsat",
        "lat": 4.694491674291448,
        "lon": -162.50539271559532,
        "alt_km": 35775.17651227336,
        "timestamp": "2025-12-06T11:28:10.696655+00:00",
        "meta_object_name": "INTELSAT 902 (IS-902)",
        "meta_object_id": "2001-039A",
        "meta_epoch": "2025-12-01T16:59:59.311968",
        "meta_mean_motion": 1.00270327,
        "meta_eccentricity": 0.00043097,
        "meta_inclination": 5.6187,
        "meta_ra_of_asc_node": 74.2002,
        "meta_arg_of_pericenter": 175.119,
        "meta_mean_anomaly": 26.3816,
        "meta_ephemeris_type": 0,
        "meta_classification_type": "U",
        "meta_norad_cat_id": 26900,
        "meta_element_set_no": 999,
        "meta_rev_at_epoch": 8871,
        "meta_bstar": 0,
        "meta_mean_motion_dot": -2.63e-06,
        "meta_mean_motion_ddot": 0,
        "tle_line1": "1 26900U 01039A   25335.70832537 -.00000263  00000+0  00000+0 0  9993",
        "tle_line2": "2 26900   5.6187  74.2002 0004309 175.1190  26.3816  1.00270327 88713"
      },
      "geometry": {
        "type": "Point",
        "coordinates": [
          -162.50539271559532,
          4.694491674291448
        ]
      }
    },
    {
      "type": "Feature",
      "properties": {
        "norad_id": 27380,
        "name": "INTELSAT 904 (IS-904)",
        "group": "intelsat",
        "lat": 3.7129095557179412,
        "lon": -143.80489014739138,
        "alt_km": 35783.19258267544,
        "timestamp": "2025-12-06T11:28:10.696671+00:00",
        "meta_object_name": "INTELSAT 904 (IS-904)",
        "meta_object_id": "2002-007A",
        "meta_epoch": "2025-12-05T15:15:34.511904",
        "meta_mean_motion": 1.00268861,
        "meta_eccentricity": 0.00017057,
        "meta_inclination": 6.4364,
        "meta_ra_of_asc_node": 71.5131,
        "meta_arg_of_pericenter": 207.4869,
        "meta_mean_anomaly": 353.0709,
        "meta_ephemeris_type": 0,
        "meta_classification_type": "U",
        "meta_norad_cat_id": 27380,
        "meta_element_set_no": 999,
        "meta_rev_at_epoch": 4982,
        "meta_bstar": 0,
        "meta_mean_motion_dot": -2.19e-06,
        "meta_mean_motion_ddot": 0,
        "tle_line1": "1 27380U 02007A   25339.63581611 -.00000219  00000+0  00000+0 0  9993",
        "tle_line2": "2 27380   6.4364  71.5131 0001705 207.4869 353.0709  1.00268861 49824"
      },
      "geometry": {
        "type": "Point",
        "coordinates": [
          -143.80489014739138,
          3.7129095557179412
        ]
      }
    },
    {
      "type": "Feature",
      "properties": {
        "norad_id": 27426,
        "name": "DIRECTV 5 (TEMPO 1)",
        "group": "intelsat",
        "lat": 3.795969303963501,
        "lon": 137.3287160678113,
        "alt_km": 35797.17468946267,
        "timestamp": "2025-12-06T11:28:10.696685+00:00",
        "meta_object_name": "DIRECTV 5 (TEMPO 1)",
        "meta_object_id": "2002-023A",
        "meta_epoch": "2025-12-05T21:43:55.587936",
        "meta_mean_motion": 1.00271421,
        "meta_eccentricity": 0.00038913,
        "meta_inclination": 4.3838,
        "meta_ra_of_asc_node": 77.7321,
        "meta_arg_of_pericenter": 194.0333,
        "meta_mean_anomaly": 19.0475,
        "meta_ephemeris_type": 0,
        "meta_classification_type": "U",
        "meta_norad_cat_id": 27426,
        "meta_element_set_no": 999,
        "meta_rev_at_epoch": 8618,
        "meta_bstar": 0,
        "meta_mean_motion_dot": -5e-07,
        "meta_mean_motion_ddot": 0,
        "tle_line1": "1 27426U 02023A   25339.90550449 -.00000050  00000+0  00000+0 0  9990",
        "tle_line2": "2 27426   4.3838  77.7321 0003891 194.0333  19.0475  1.00271421 86187"
      },
      "geometry": {
        "type": "Point",
        "coordinates": [
          137.3287160678113,
          3.795969303963501
        ]
      }
    },
    {
      "type": "Feature",
      "properties": {
        "norad_id": 27438,
        "name": "INTELSAT 905 (IS-905)",
        "group": "intelsat",
        "lat": 3.8979128873177804,
        "lon": 110.2138974725143,
        "alt_km": 35796.4326958023,
        "timestamp": "2025-12-06T11:28:10.696698+00:00",
        "meta_object_name": "INTELSAT 905 (IS-905)",
        "meta_object_id": "2002-027A",
        "meta_epoch": "2025-12-03T09:40:44.149728",
        "meta_mean_motion": 1.00273288,
        "meta_eccentricity": 0.00031296,
        "meta_inclination": 6.2606,
        "meta_ra_of_asc_node": 72.1621,
        "meta_arg_of_pericenter": 189.1417,
        "meta_mean_anomaly": 179.1858,
        "meta_ephemeris_type": 0,
        "meta_classification_type": "U",
        "meta_norad_cat_id": 27438,
        "meta_element_set_no": 999,
        "meta_rev_at_epoch": 4940,
        "meta_bstar": 0,
        "meta_mean_motion_dot": 1.09e-06,
        "meta_mean_motion_ddot": 0,
        "tle_line1": "1 27438U 02027A   25337.40328877  .00000109  00000+0  00000+0 0  9992",
        "tle_line2": "2 27438   6.2606  72.1621 0003129 189.1417 179.1858  1.00273288 49408"
      },
      "geometry": {
        "type": "Point",
        "coordinates": [
          110.2138974725143,
          3.8979128873177804
        ]
      }
    },
    {
      "type": "Feature",
      "properties": {
        "norad_id": 27445,
        "name": "GALAXY 3C (G-3C)",
        "group": "intelsat",
        "lat": 3.0946863755699012,
        "lon": 152.65923299267504,
        "alt_km": 35781.48683756558,
        "timestamp": "2025-12-06T11:28:10.696711+00:00",
        "meta_object_name": "GALAXY 3C (G-3C)",
        "meta_object_id": "2002-030A",
        "meta_epoch": "2025-12-05T21:48:17.669376",
        "meta_mean_motion": 1.00270565,
        "meta_eccentricity": 0.00012513,
        "meta_inclination": 3.2464,
        "meta_ra_of_asc_node": 80.5743,
        "meta_arg_of_pericenter": 101.7062,
        "meta_mean_anomaly": 124.8895,
        "meta_ephemeris_type": 0,
        "meta_classification_type": "U",
        "meta_norad_cat_id": 27445,
        "meta_element_set_no": 999,
        "meta_rev_at_epoch": 4455,
        "meta_bstar": 0,
        "meta_mean_motion_dot": -1.45e-06,
        "meta_mean_motion_ddot": 0,
        "tle_line1": "1 27445U 02030A   25339.90853784 -.00000145  00000+0  00000+0 0  9992",
        "tle_line2": "2 27445   3.2464  80.5743 0001251 101.7062 124.8895  1.00270565 44557"
      },
      "geometry": {
        "type": "Point",
        "coordinates": [
          152.65923299267504,
          3.0946863755699012
        ]
      }
    },
    {
      "type": "Feature",
      "properties": {
        "norad_id": 27513,
        "name": "INTELSAT 906 (IS-906)",
        "group": "intelsat",
        "lat": -4.4402202274379015,
        "lon": -48.362008239061545,
        "alt_km": 35770.29152280062,
        "timestamp": "2025-12-06T11:28:10.696739+00:00",
        "meta_object_name": "INTELSAT 906 (IS-906)",
        "meta_object_id": "2002-041A",
        "meta_epoch": "2025-12-05T20:25:38.610912",
        "meta_mean_motion": 1.00270266,
        "meta_eccentricity": 0.00060537,
        "meta_inclination": 5.3114,
        "meta_ra_of_asc_node": 75.3137,
        "meta_arg_of_pericenter": 187.2816,
        "meta_mean_anomaly": 182.8578,
        "meta_ephemeris_type": 0,
        "meta_classification_type": "U",
        "meta_norad_cat_id": 27513,
        "meta_element_set_no": 999,
        "meta_rev_at_epoch": 8509,
        "meta_bstar": 0,
        "meta_mean_motion_dot": 2e-07,
        "meta_mean_motion_ddot": 0,
        "tle_line1": "1 27513U 02041A   25339.85114133  .00000020  00000+0  00000+0 0  9993",
        "tle_line2": "2 27513   5.3114  75.3137 0006053 187.2816 182.8578  1.00270266 85092"
      },
      "geometry": {
        "type": "Point",
        "coordinates": [
          -48.362008239061545,
          -4.4402202274379015
        ]
      }
    }
  ]
}